CCSDS_OMM_VERS = 2.0
CREATION_DATE  = 
ORIGINATOR     = 

OBJECT_NAME    = ELECTRON R/B
OBJECT_ID      = 2025-307B
CENTER_NAME    = EARTH
REF_FRAME      = TEME
TIME_SYSTEM    = UTC
MEAN_ELEMENT_THEORY = SGP/SGP4

EPOCH          = 2026-01-09T09:33:01.809504
MEAN_MOTION    = 15.77331631
ECCENTRICITY   = .01701597
INCLINATION    = 41.9942
RA_OF_ASC_NODE = 7.6413
ARG_OF_PERICENTER = 15.5064
MEAN_ANOMALY   = 345.0915

EPHEMERIS_TYPE = 0
CLASSIFICATION_TYPE = U
NORAD_CAT_ID   = 67229
ELEMENT_SET_NO = 999
REV_AT_EPOCH   = 299
BSTAR          = .20284552E-2
MEAN_MOTION_DOT = .965777E-2
MEAN_MOTION_DDOT = .33609286E-3

CCSDS_OMM_VERS = 2.0
CREATION_DATE  = 
ORIGINATOR     = 

OBJECT_NAME    = ELECTRON KICK STAGE R/B
OBJECT_ID      = 2025-307C
CENTER_NAME    = EARTH
REF_FRAME      = TEME
TIME_SYSTEM    = UTC
MEAN_ELEMENT_THEORY = SGP/SGP4

EPOCH          = 2026-01-09T16:46:36.192000
MEAN_MOTION    = 15.93432153
ECCENTRICITY   = .01282177
INCLINATION    = 42.0021
RA_OF_ASC_NODE = 4.6934
ARG_OF_PERICENTER = 51.2731
MEAN_ANOMALY   = 309.9510

EPHEMERIS_TYPE = 0
CLASSIFICATION_TYPE = U
NORAD_CAT_ID   = 67230
ELEMENT_SET_NO = 999
REV_AT_EPOCH   = 145
BSTAR          = .19606313E-2
MEAN_MOTION_DOT = .1688794E-1
MEAN_MOTION_DDOT = .7914077E-5

CCSDS_OMM_VERS = 2.0
CREATION_DATE  = 
ORIGINATOR     = 

OBJECT_NAME    = SPACEMOBILE-006
OBJECT_ID      = 2025-309A
CENTER_NAME    = EARTH
REF_FRAME      = TEME
TIME_SYSTEM    = UTC
MEAN_ELEMENT_THEORY = SGP/SGP4

EPOCH          = 2026-01-09T10:46:58.690560
MEAN_MOTION    = 15.17727528
ECCENTRICITY   = .00115846
INCLINATION    = 52.9977
RA_OF_ASC_NODE = 338.2289
ARG_OF_PERICENTER = 13.0224
MEAN_ANOMALY   = 347.1067

EPHEMERIS_TYPE = 0
CLASSIFICATION_TYPE = U
NORAD_CAT_ID   = 67232
ELEMENT_SET_NO = 999
REV_AT_EPOCH   = 248
BSTAR          = .54447722E-4
MEAN_MOTION_DOT = .793E-5
MEAN_MOTION_DDOT = 0

CCSDS_OMM_VERS = 2.0
CREATION_DATE  = 
ORIGINATOR     = 

OBJECT_NAME    = LVM3 R/B
OBJECT_ID      = 2025-309B
CENTER_NAME    = EARTH
REF_FRAME      = TEME
TIME_SYSTEM    = UTC
MEAN_ELEMENT_THEORY = SGP/SGP4

EPOCH          = 2026-01-09T10:19:48.010656
MEAN_MOTION    = 15.19604219
ECCENTRICITY   = .0011232
INCLINATION    = 52.9273
RA_OF_ASC_NODE = 337.9152
ARG_OF_PERICENTER = 38.6376
MEAN_ANOMALY   = 321.5418

EPHEMERIS_TYPE = 0
CLASSIFICATION_TYPE = U
NORAD_CAT_ID   = 67233
ELEMENT_SET_NO = 999
REV_AT_EPOCH   = 248
BSTAR          = .41185412E-3
MEAN_MOTION_DOT = .8578E-4
MEAN_MOTION_DDOT = 0

CCSDS_OMM_VERS = 2.0
CREATION_DATE  = 
ORIGINATOR     = 

OBJECT_NAME    = 2025-310A
OBJECT_ID      = 2025-310A
CENTER_NAME    = EARTH
REF_FRAME      = TEME
TIME_SYSTEM    = UTC
MEAN_ELEMENT_THEORY = SGP/SGP4

EPOCH          = 2026-01-07T16:06:22.408416
MEAN_MOTION    = 14.75713796
ECCENTRICITY   = .00014299
INCLINATION    = 97.9664
RA_OF_ASC_NODE = 17.2888
ARG_OF_PERICENTER = 204.5799
MEAN_ANOMALY   = 155.5342

EPHEMERIS_TYPE = 0
CLASSIFICATION_TYPE = U
NORAD_CAT_ID   = 67234
ELEMENT_SET_NO = 999
REV_AT_EPOCH   = 195
BSTAR          = .12564798E-4
MEAN_MOTION_DOT = .36E-6
MEAN_MOTION_DDOT = 0

CCSDS_OMM_VERS = 2.0
CREATION_DATE  = 
ORIGINATOR     = 

OBJECT_NAME    = SL-4 R/B
OBJECT_ID      = 2025-310B
CENTER_NAME    = EARTH
REF_FRAME      = TEME
TIME_SYSTEM    = UTC
MEAN_ELEMENT_THEORY = SGP/SGP4

EPOCH          = 2026-01-09T22:20:43.736928
MEAN_MOTION    = 15.56294246
ECCENTRICITY   = .02761277
INCLINATION    = 97.9670
RA_OF_ASC_NODE = 21.1150
ARG_OF_PERICENTER = 21.2018
MEAN_ANOMALY   = 340.0416

EPHEMERIS_TYPE = 0
CLASSIFICATION_TYPE = U
NORAD_CAT_ID   = 67235
ELEMENT_SET_NO = 999
REV_AT_EPOCH   = 238
BSTAR          = .60134677E-3
MEAN_MOTION_DOT = .279986E-2
MEAN_MOTION_DDOT = .2348906E-5

CCSDS_OMM_VERS = 2.0
CREATION_DATE  = 
ORIGINATOR     = 

OBJECT_NAME    = HULIANWANG DIGUI-128
OBJECT_ID      = 2025-311A
CENTER_NAME    = EARTH
REF_FRAME      = TEME
TIME_SYSTEM    = UTC
MEAN_ELEMENT_THEORY = SGP/SGP4

EPOCH          = 2026-01-09T16:02:01.254912
MEAN_MOTION    = 13.90209357
ECCENTRICITY   = .00065408
INCLINATION    = 50.0102
RA_OF_ASC_NODE = 337.1846
ARG_OF_PERICENTER = 325.9216
MEAN_ANOMALY   = 34.1262

EPHEMERIS_TYPE = 0
CLASSIFICATION_TYPE = U
NORAD_CAT_ID   = 67236
ELEMENT_SET_NO = 999
REV_AT_EPOCH   = 205
BSTAR          = .13441783E-3
MEAN_MOTION_DOT = .21E-6
MEAN_MOTION_DDOT = 0

CCSDS_OMM_VERS = 2.0
CREATION_DATE  = 
ORIGINATOR     = 

OBJECT_NAME    = HULIANWANG DIGUI-129
OBJECT_ID      = 2025-311B
CENTER_NAME    = EARTH
REF_FRAME      = TEME
TIME_SYSTEM    = UTC
MEAN_ELEMENT_THEORY = SGP/SGP4

EPOCH          = 2026-01-09T16:03:36.932544
MEAN_MOTION    = 13.90165771
ECCENTRICITY   = .00077831
INCLINATION    = 50.0091
RA_OF_ASC_NODE = 337.1881
ARG_OF_PERICENTER = 327.5748
MEAN_ANOMALY   = 32.4672

EPHEMERIS_TYPE = 0
CLASSIFICATION_TYPE = U
NORAD_CAT_ID   = 67237
ELEMENT_SET_NO = 999
REV_AT_EPOCH   = 205
BSTAR          = .14356769E-3
MEAN_MOTION_DOT = .32E-6
MEAN_MOTION_DDOT = 0

CCSDS_OMM_VERS = 2.0
CREATION_DATE  = 
ORIGINATOR     = 

OBJECT_NAME    = HULIANWANG DIGUI-130
OBJECT_ID      = 2025-311C
CENTER_NAME    = EARTH
REF_FRAME      = TEME
TIME_SYSTEM    = UTC
MEAN_ELEMENT_THEORY = SGP/SGP4

EPOCH          = 2026-01-09T16:13:28.974720
MEAN_MOTION    = 13.90217203
ECCENTRICITY   = .00077786
INCLINATION    = 50.0072
RA_OF_ASC_NODE = 337.2194
ARG_OF_PERICENTER = 305.0125
MEAN_ANOMALY   = 55.0043

EPHEMERIS_TYPE = 0
CLASSIFICATION_TYPE = U
NORAD_CAT_ID   = 67238
ELEMENT_SET_NO = 999
REV_AT_EPOCH   = 205
BSTAR          = .13339254E-3
MEAN_MOTION_DOT = .2E-6
MEAN_MOTION_DDOT = 0

CCSDS_OMM_VERS = 2.0
CREATION_DATE  = 
ORIGINATOR     = 

OBJECT_NAME    = HULIANWANG DIGUI-131
OBJECT_ID      = 2025-311D
CENTER_NAME    = EARTH
REF_FRAME      = TEME
TIME_SYSTEM    = UTC
MEAN_ELEMENT_THEORY = SGP/SGP4

EPOCH          = 2026-01-09T16:17:52.941408
MEAN_MOTION    = 13.90204245
ECCENTRICITY   = .00093676
INCLINATION    = 50.0068
RA_OF_ASC_NODE = 337.2341
ARG_OF_PERICENTER = 312.4683
MEAN_ANOMALY   = 47.5423

EPHEMERIS_TYPE = 0
CLASSIFICATION_TYPE = U
NORAD_CAT_ID   = 67239
ELEMENT_SET_NO = 999
REV_AT_EPOCH   = 205
BSTAR          = .13401097E-3
MEAN_MOTION_DOT = .21E-6
MEAN_MOTION_DDOT = 0

CCSDS_OMM_VERS = 2.0
CREATION_DATE  = 
ORIGINATOR     = 

OBJECT_NAME    = HULIANWANG DIGUI-132
OBJECT_ID      = 2025-311E
CENTER_NAME    = EARTH
REF_FRAME      = TEME
TIME_SYSTEM    = UTC
MEAN_ELEMENT_THEORY = SGP/SGP4

EPOCH          = 2026-01-09T14:25:36.693696
MEAN_MOTION    = 13.90230182
ECCENTRICITY   = .00084491
INCLINATION    = 50.0080
RA_OF_ASC_NODE = 337.4915
ARG_OF_PERICENTER = 318.9262
MEAN_ANOMALY   = 41.0999

EPHEMERIS_TYPE = 0
CLASSIFICATION_TYPE = U
NORAD_CAT_ID   = 67240
ELEMENT_SET_NO = 999
REV_AT_EPOCH   = 204
BSTAR          = .12912984E-3
MEAN_MOTION_DOT = .15E-6
MEAN_MOTION_DDOT = 0

CCSDS_OMM_VERS = 2.0
CREATION_DATE  = 
ORIGINATOR     = 

OBJECT_NAME    = HULIANWANG DIGUI-133
OBJECT_ID      = 2025-311F
CENTER_NAME    = EARTH
REF_FRAME      = TEME
TIME_SYSTEM    = UTC
MEAN_ELEMENT_THEORY = SGP/SGP4

EPOCH          = 2026-01-09T16:06:22.467168
MEAN_MOTION    = 13.90208164
ECCENTRICITY   = .00075659
INCLINATION    = 50.0124
RA_OF_ASC_NODE = 337.2047
ARG_OF_PERICENTER = 323.1417
MEAN_ANOMALY   = 36.8961

EPHEMERIS_TYPE = 0
CLASSIFICATION_TYPE = U
NORAD_CAT_ID   = 67241
ELEMENT_SET_NO = 999
REV_AT_EPOCH   = 205
BSTAR          = .1366687E-3
MEAN_MOTION_DOT = .24E-6
MEAN_MOTION_DDOT = 0

