ELECTRON R/B            
1 67229U 25307B   26009.39793761  .00965777  33609-3  20285-2 0  9999
2 67229  41.9942   7.6413 0170159  15.5064 345.0915 15.77331631  2996
ELECTRON KICK STAGE R/B 
1 67230U 25307C   26009.69903000  .01688794  79141-5  19606-2 0  9993
2 67230  42.0021   4.6934 0128217  51.2731 309.9510 15.93432153  1458
SPACEMOBILE-006         
1 67232U 25309A   26009.44929040  .00000793  00000+0  54448-4 0  9995
2 67232  52.9977 338.2289 0011584  13.0224 347.1067 15.17727528  2484
LVM3 R/B                
1 67233U 25309B   26009.43041679  .00008578  00000+0  41185-3 0  9990
2 67233  52.9273 337.9152 0011232  38.6376 321.5418 15.19604219  2489
2025-310A               
1 67234U 25310A   26007.67109269  .00000036  00000+0  12565-4 0  9999
2 67234  97.9664  17.2888 0001429 204.5799 155.5342 14.75713796  1951
SL-4 R/B                
1 67235U 25310B   26009.93106177  .00279986  23489-5  60135-3 0  9995
2 67235  97.9670  21.1150 0276127  21.2018 340.0416 15.56294246  2387
HULIANWANG DIGUI-128    
1 67236U 25311A   26009.66807008  .00000021  00000+0  13442-3 0  9997
2 67236  50.0102 337.1846 0006540 325.9216  34.1262 13.90209357  2053
HULIANWANG DIGUI-129    
1 67237U 25311B   26009.66917746  .00000032  00000+0  14357-3 0  9997
2 67237  50.0091 337.1881 0007783 327.5748  32.4672 13.90165771  2055
HULIANWANG DIGUI-130    
1 67238U 25311C   26009.67602980  .00000020  00000+0  13339-3 0  9996
2 67238  50.0072 337.2194 0007778 305.0125  55.0043 13.90217203  2058
HULIANWANG DIGUI-131    
1 67239U 25311D   26009.67908497  .00000021  00000+0  13401-3 0  9990
2 67239  50.0068 337.2341 0009367 312.4683  47.5423 13.90204245  2055
HULIANWANG DIGUI-132    
1 67240U 25311E   26009.60111914  .00000015  00000+0  12913-3 0  9995
2 67240  50.0080 337.4915 0008449 318.9262  41.0999 13.90230182  2049
HULIANWANG DIGUI-133    
1 67241U 25311F   26009.67109337  .00000024  00000+0  13667-3 0  9996
2 67241  50.0124 337.2047 0007565 323.1417  36.8961 13.90208164  2058
